[{"OBJECT_NAME":"GAOFEN-14 01","OBJECT_ID":"2020-092A","EPOCH":"2026-03-09T23:18:15.156000","MEAN_MOTION":15.25725011,"ECCENTRICITY":0.0008015,"INCLINATION":97.4817,"RA_OF_ASC_NODE":139.2507,"ARG_OF_PERICENTER":138.8844,"MEAN_ANOMALY":221.2999,"EPHEMERIS_TYPE":0,"CLASSIFICATION_TYPE":"U","NORAD_CAT_ID":47231,"ELEMENT_SET_NO":999,"REV_AT_EPOCH":29270,"BSTAR":0.00022250672,"MEAN_MOTION_DOT":5.605e-5,"MEAN_MOTION_DDOT":0},{"OBJECT_NAME":"STARLINK-32714","OBJECT_ID":"2025-003N","EPOCH":"2026-03-09T00:15:34.588800","MEAN_MOTION":15.27599264,"ECCENTRICITY":0.00019152,"INCLINATION":43.0027,"RA_OF_ASC_NODE":293.1613,"ARG_OF_PERICENTER":264.392,"MEAN_ANOMALY":95.6713,"EPHEMERIS_TYPE":0,"CLASSIFICATION_TYPE":"U","NORAD_CAT_ID":62499,"ELEMENT_SET_NO":999,"REV_AT_EPOCH":6656,"BSTAR":0.0014163541,"MEAN_MOTION_DOT":0.00038942,"MEAN_MOTION_DDOT":0}]
